OBJECT_NAME,OBJECT_ID,EPOCH,MEAN_MOTION,ECCENTRICITY,INCLINATION,RA_OF_ASC_NODE,ARG_OF_PERICENTER,MEAN_ANOMALY,EPHEMERIS_TYPE,CLASSIFICATION_TYPE,NORAD_CAT_ID,ELEMENT_SET_NO,REV_AT_EPOCH,BSTAR,MEAN_MOTION_DOT,MEAN_MOTION_DDOT
STARLINK-31210,2024-038L,2026-07-06T00:21:51.799968,15.27544169,.00016289,43.0056,75.4082,8.2042,351.8836,0,U,59033,999,13295,-.16426548E-3,-.4775E-4,0
STARLINK-31231,2024-038M,2026-07-05T22:42:08.529984,15.27550875,.00008468,43.0055,75.7480,246.9507,113.1256,0,U,59034,999,13277,-.16907155E-3,-.4907E-4,0
STARLINK-31207,2024-038N,2026-07-06T01:44:54.229632,15.27548089,.00008007,43.0014,74.9804,255.9755,104.1008,0,U,59035,999,13296,-.14436365E-3,-.4228E-4,0
STARLINK-31217,2024-038P,2026-07-06T10:51:44.863776,15.27573895,.00004549,42.9975,338.5050,245.0495,115.0309,0,U,59036,999,13410,-.50890651E-4,-.1661E-4,0
STARLINK-31208,2024-038Q,2026-07-05T23:35:04.601760,15.27549338,.00005009,43.0003,79.4371,248.8374,111.2424,0,U,59037,999,13290,-.16745371E-3,-.4862E-4,0
STARLINK-31235,2024-038R,2026-07-06T01:41:11.555232,15.27561471,.00009224,43.0034,74.9585,269.8597,90.2149,0,U,59038,999,13290,-.87210911E-4,-.266E-4,0
STARLINK-31220,2024-038S,2026-07-06T01:44:11.172192,15.27558849,.00008786,43.0025,78.4222,270.0140,90.0611,0,U,59039,999,13286,-.12238521E-3,-.3626E-4,0
STARLINK-31225,2024-038T,2026-07-06T01:20:49.650144,15.27543333,.00013128,43.0005,74.8158,275.2230,84.8472,0,U,59040,999,13279,.97502381E-3,.26635E-3,0
STARLINK-31240,2024-038U,2026-07-06T02:16:21.123552,15.27549799,.00007966,42.9995,75.1439,244.1486,115.9284,0,U,59041,999,13290,-.13901223E-3,-.4081E-4,0
STARLINK-31202,2024-038V,2026-07-06T01:38:09.246048,15.29647714,.00049582,43.0024,74.0950,264.4471,95.5816,0,U,59042,999,13297,.14261727E-2,.41797E-3,0
STARLINK-31234,2024-038W,2026-07-06T02:07:05.496384,15.27568762,.00013218,43.0041,75.0951,270.5800,89.4900,0,U,59043,999,13279,-.95880257E-4,-.2899E-4,0
STARLINK-31153,2024-038X,2026-07-06T01:35:38.193792,15.27564808,.00013381,43.0054,74.9302,285.2495,74.8209,0,U,59044,999,13279,-.12677946E-3,-.3747E-4,0
STARLINK-31241,2024-038Y,2026-07-06T00:38:28.919904,15.27577509,.00009643,43.0034,75.4934,265.8138,94.2603,0,U,59045,999,13295,-.29367908E-3,-.8334E-4,0
STARLINK-31205,2024-038Z,2026-07-05T18:10:46.617600,15.27550655,.00015765,43.0059,76.9128,277.6024,82.4648,0,U,59046,999,13285,-.17840325E-3,-.5164E-4,0
STARLINK-31265,2024-041A,2026-07-06T12:16:24.183264,15.27502750,.00010219,43.0063,359.6745,256.2891,103.7847,0,U,59074,999,13244,.35488767E-3,.9493E-4,0
STARLINK-31276,2024-041B,2026-07-06T11:30:05.880672,15.27590978,.00015691,43.0037,359.4352,265.9381,94.1291,0,U,59075,999,13249,.10158815E-4,.17E-6,0
STARLINK-31259,2024-041C,2026-07-06T11:35:41.346816,15.27566617,.00014604,43.0009,359.4594,212.3122,147.7641,0,U,59076,999,13139,-.11009603E-3,-.3289E-4,0
STARLINK-31281,2024-041D,2026-07-05T23:07:59.994912,15.27553125,.00011613,43.0015,2.4499,293.0009,67.0720,0,U,59077,999,13241,-.12348744E-3,-.3656E-4,0
STARLINK-31274,2024-041E,2026-07-05T20:42:17.103744,15.27493897,.00009021,43.0046,3.4002,197.9504,162.1316,0,U,59078,999,13234,-.20466119E-4,-.823E-5,0
STARLINK-31257,2024-041F,2026-07-05T20:18:10.915488,15.27554304,.0000787,42.9997,3.2799,234.6777,125.4001,0,U,59079,999,13234,-.12620898E-3,-.373E-4,0
STARLINK-31292,2024-041H,2026-07-06T11:46:46.635456,15.27565763,.00013948,43.0014,359.5189,230.6318,129.4410,0,U,59081,999,13243,-.43017924E-4,-.1445E-4,0
STARLINK-31286,2024-041J,2026-07-06T11:52:19.728192,15.27569624,.00008904,42.9987,359.5501,276.8912,83.1838,0,U,59082,999,13252,.16287538E-4,.186E-5,0
STARLINK-31252,2024-041K,2026-07-06T07:01:02.615232,15.27554532,.00011534,43.0037,277.7134,243.4898,116.5836,0,U,59083,999,13341,-.26866549E-4,-.1001E-4,0
STARLINK-31261,2024-041L,2026-07-06T10:58:53.287680,15.27564982,.00007173,43.0013,0.1228,234.1362,125.9423,0,U,59084,999,13248,-.89124058E-4,-.2712E-4,0
STARLINK-31290,2024-041M,2026-07-06T11:29:19.464000,15.27434982,.00055139,43.0065,345.5779,143.8299,216.2927,0,U,59085,999,13274,-.15009093E-3,-.4375E-4,0
STARLINK-31279,2024-041N,2026-07-06T11:19:14.515392,15.27604540,.00006932,43.0069,0.2330,275.5411,84.5361,0,U,59086,999,13248,-.32894926E-3,-.9309E-4,0
STARLINK-31266,2024-041P,2026-07-05T21:50:28.401216,15.27549715,.00006381,42.9995,2.9016,262.7005,97.3775,0,U,59087,999,13240,-.19237426E-3,-.5546E-4,0
STARLINK-31313,2024-041Q,2026-07-05T21:54:11.441088,15.27557390,.0001455,43.0023,2.9203,275.2478,84.8208,0,U,59088,999,13235,-.99040033E-4,-.2985E-4,0
STARLINK-31307,2024-041R,2026-07-06T11:56:02.570208,15.27555417,.00017949,43.0036,359.5725,278.7699,81.2950,0,U,59089,999,13249,-.20222391E-4,-.818E-5,0
STARLINK-31316,2024-041S,2026-07-06T10:26:50.264736,15.27557251,.00013254,43.0003,313.2764,276.9579,83.1122,0,U,59090,999,13291,-.15638774E-3,-.456E-4,0
STARLINK-31310,2024-041U,2026-07-06T11:28:27.185088,15.27598935,.00012778,43.0041,0.2806,295.6969,64.3751,0,U,59092,999,13243,.23567653E-4,.387E-5,0
STARLINK-31343,2024-041V,2026-07-06T08:01:40.429344,15.27568555,.00011982,43.0049,0.9195,288.3884,71.6837,0,U,59093,999,13246,-.41064375E-4,-.1391E-4,0
STARLINK-31295,2024-041X,2026-07-06T12:12:40.756320,15.27563549,.00017571,43.0038,359.6490,266.4482,93.6168,0,U,59095,999,13244,.36591826E-4,.744E-5,0
STARLINK-31291,2024-041Y,2026-07-06T12:08:59.136864,15.27567793,.00010987,43.0019,359.6272,278.6099,81.4628,0,U,59096,999,13244,-.46672058E-4,-.1546E-4,0
STARLINK-31312,2024-044A,2026-07-06T04:32:34.410624,15.27562898,.0001222,43.0012,107.1043,267.0363,93.0349,0,U,59152,999,13230,-.63571712E-4,-.201E-4,0
STARLINK-31308,2024-044B,2026-07-06T03:32:53.038176,15.27556570,.00022139,43.0034,111.2052,265.2377,94.8222,0,U,59153,999,13226,-.1570255E-3,-.4578E-4,0
STARLINK-31270,2024-044C,2026-07-06T07:04:01.083072,15.27556050,.00014004,43.0038,157.2995,263.0735,96.9957,0,U,59154,999,13173,-.11735957E-3,-.3488E-4,0
STARLINK-31341,2024-044D,2026-07-06T07:23:40.081920,15.27558824,.00012554,43.0027,160.8485,273.4582,86.6126,0,U,59155,999,13166,-.99952069E-4,-.301E-4,0
STARLINK-31338,2024-044E,2026-07-05T23:27:19.608192,15.27562588,.00011502,43.0040,162.6634,249.6939,110.3790,0,U,59156,999,13161,-.92956669E-4,-.2818E-4,0
STARLINK-31334,2024-044F,2026-07-06T07:07:01.055136,15.27557566,.00004939,42.9997,160.7557,290.7747,69.3052,0,U,59157,999,13166,-.9708721E-4,-.293E-4,0
STARLINK-31297,2024-044G,2026-07-05T09:11:19.991328,15.27588067,.00009347,43.0013,162.5015,298.7798,61.2960,0,U,59158,999,13159,.4638421E-4,.1015E-4,0
STARLINK-31182,2024-044H,2026-07-05T23:59:16.528704,15.27562397,.00014845,43.0012,158.5268,271.4093,88.6589,0,U,59159,999,13169,-.83966733E-4,-.2571E-4,0
STARLINK-31327,2024-044J,2026-07-06T07:13:15.364992,15.27554978,.00015946,43.0023,157.3488,260.4731,99.5940,0,U,59160,999,13173,-.17945138E-3,-.5193E-4,0
STARLINK-31256,2024-044K,2026-07-06T06:21:26.762976,15.27555145,.00014535,43.0001,157.0678,266.9895,93.0791,0,U,59161,999,13173,-.17041781E-3,-.4945E-4,0
STARLINK-31272,2024-044L,2026-07-06T06:27:00.707616,15.27555077,.00013736,43.0016,157.1037,267.1003,92.9691,0,U,59162,999,13170,-.88466834E-4,-.2694E-4,0
STARLINK-31278,2024-044M,2026-07-06T08:06:43.782336,15.27552830,.00004219,43.0008,156.7625,327.4495,32.6331,0,U,59163,999,13171,-.1107344E-3,-.3305E-4,0
STARLINK-31309,2024-044N,2026-07-06T08:12:15.530688,15.27562782,.00017295,43.0011,156.7918,279.8931,80.1726,0,U,59164,999,13174,-.3181354E-4,-.1137E-4,0
STARLINK-31325,2024-044P,2026-07-06T06:41:48.820128,15.27555293,.0000893,43.0004,157.1779,257.3135,102.7617,0,U,59165,999,13170,-.14453474E-3,-.4234E-4,0
STARLINK-31342,2024-044Q,2026-07-06T08:21:30.691296,15.27565877,.00010804,43.0007,156.8381,277.7246,82.3482,0,U,59166,999,13174,-.48854557E-4,-.1605E-4,0
STARLINK-31298,2024-044R,2026-07-05T23:02:08.388384,15.27564047,.00013526,43.0010,159.0841,266.5923,93.4774,0,U,59167,999,13165,-.50327482E-4,-.1646E-4,0
STARLINK-31322,2024-044S,2026-07-05T23:39:07.079040,15.27567739,.00018165,43.0034,159.2730,284.8303,75.2347,0,U,59168,999,13168,-.28989827E-4,-.106E-4,0
STARLINK-31329,2024-044T,2026-07-06T07:18:49.368384,15.27557767,.00017996,43.0030,157.3727,283.5828,76.4823,0,U,59169,999,13170,-.1699511E-3,-.4933E-4,0
STARLINK-31340,2024-044U,2026-07-06T05:44:32.178912,15.27539469,.00012592,43.0002,117.9692,277.6444,82.4265,0,U,59170,999,13215,-.17467297E-3,-.5059E-4,0
STARLINK-31344,2024-044V,2026-07-06T07:24:22.169088,15.27556009,.00013638,43.0026,157.4016,272.0229,88.0466,0,U,59171,999,13173,-.11974204E-3,-.3553E-4,0
STARLINK-31348,2024-044W,2026-07-06T03:34:42.527712,15.27555122,.00017704,42.9995,111.2131,275.2369,84.8280,0,U,59172,999,13222,.64245232E-3,.17445E-3,0
STARLINK-31289,2024-044X,2026-07-06T06:58:27.947136,15.27537968,.00011875,43.0018,157.2652,271.4885,88.5831,0,U,59173,999,13173,-.80616588E-4,-.2477E-4,0
STARLINK-31283,2024-044Y,2026-07-06T14:00:03.000384,15.27580256,.00017622,42.9997,108.6603,255.3447,17.9654,0,U,59174,999,586,.84955763E-3,.2319E-3,0
STARLINK-31439,2024-045A,2026-07-06T06:17:31.362720,15.27553406,.00012417,43.0031,139.6168,291.1965,68.8754,0,U,59178,999,6766,-.13701147E-3,-.4027E-4,0
STARLINK-31410,2024-045B,2026-07-05T20:50:00.115296,15.27532766,.00014424,43.0024,145.2793,281.7034,78.3655,0,U,59179,999,13123,-.49724979E-3,-.139E-3,0
STARLINK-31395,2024-045C,2026-07-06T06:46:25.112640,15.27560487,.00010933,43.0017,143.2223,287.0931,72.9801,0,U,59180,999,13129,-.85286997E-4,-.2607E-4,0
STARLINK-31486,2024-045D,2026-07-06T06:23:03.886944,15.27556001,.00010986,43.0020,139.6428,282.5714,77.5014,0,U,59181,999,13133,-.56234318E-4,-.1808E-4,0
STARLINK-31411,2024-045E,2026-07-06T05:28:42.449376,15.27556532,.0001297,43.0019,142.8129,262.4552,97.6153,0,U,59182,999,13129,-.1100651E-3,-.3287E-4,0
STARLINK-31382,2024-045G,2026-07-05T08:57:14.143104,15.27569592,.0000344,42.9975,147.5782,6.0511,354.0345,0,U,59184,999,13116,-.31312E-4,-.1123E-4,0
